NORAD_CAT_ID,OBJECT_NAME,OBJECT_TYPE,EPOCH,MEAN_MOTION,ECCENTRICITY,INCLINATION,RA_OF_ASC_NODE,ARG_OF_PERICENTER,MEAN_ANOMALY,BSTAR,MEAN_MOTION_DOT,MEAN_MOTION_DDOT,TLE_LINE0,TLE_LINE1,TLE_LINE2,SEMIMAJOR_AXIS,PERIOD,APOGEE,PERIGEE,DECAYED
51121.0,STARLINK-3399,PAYLOAD,2023-03-30 09:28:06,15.08837209,0.0001485,53.2186,76.3101,93.9043,266.2119,0.00011079,1.476e-05,0.0,0 STARLINK-3399,1 51121U 22005T   23089.39452473  .00001476  00000-0  11079-3 0  9997,2 51121  53.2186  76.3101 0001485  93.9043 266.2119 15.08837209 66542,6917.889,95.438,540.781,538.727,0.0
51121.0,STARLINK-3399,PAYLOAD,2023-03-31 02:57:21,15.08851894,0.0001419,53.2179,73.0392,94.2611,265.8543,0.00044378,6.784e-05,0.0,0 STARLINK-3399,1 51121U 22005T   23090.12316119  .00006784  00000-0  44378-3 0  9991,2 51121  53.2179  73.0392 0001419  94.2611 265.8543 15.08851894 67769,6917.844,95.437,540.691,538.727,0.0
51121.0,STARLINK-3399,PAYLOAD,2023-03-31 10:54:16,15.08877372,0.0001461,53.2173,71.5521,94.3618,265.7541,0.0012505,0.0001969,0.0,0 STARLINK-3399,1 51121U 22005T   23090.45435438  .00019690  00000-0  12505-2 0  9999,2 51121  53.2173  71.5521 0001461  94.3618 265.7541 15.08877372 67817,6917.766,95.435,540.642,538.62,0.0
51121.0,STARLINK-3399,PAYLOAD,2023-04-01 04:23:31,15.08844311,0.0001427,53.2176,68.2814,89.5168,270.5987,0.00036573,5.538e-05,0.0,0 STARLINK-3399,1 51121U 22005T   23091.18300230  .00005538  00000-0  36573-3 0  9999,2 51121  53.2176  68.2814 0001427  89.5168 270.5987 15.08844311 67923,6917.867,95.437,540.719,538.745,0.0
51121.0,STARLINK-3399,PAYLOAD,2023-04-01 10:45:04,15.08841502,0.0001487,53.2166,67.0908,102.3487,257.7672,0.0011652,0.00018306,0.0,0 STARLINK-3399,1 51121U 22005T   23091.44796341  .00018306  00000-0  11652-2 0  9997,2 51121  53.2166  67.0908 0001487 102.3487 257.7672 15.08841502 66855,6917.876,95.437,540.769,538.712,0.0
51121.0,STARLINK-3399,PAYLOAD,2023-04-02 05:49:42,15.08836979,0.0001579,53.2176,63.5233,91.7855,268.3318,2.9182e-05,1.76e-06,0.0,0 STARLINK-3399,1 51121U 22005T   23092.24285000  .00000176  00000-0  29182-4 0  9996,2 51121  53.2176  63.5233 0001579  91.7855 268.3318 15.08836979 68084,6917.89,95.438,540.847,538.662,0.0
51121.0,STARLINK-3399,PAYLOAD,2023-04-02 07:25:05,15.08839054,0.0001509,53.2173,63.2222,106.2503,253.8656,6.3978e-05,7.3e-06,0.0,0 STARLINK-3399,1 51121U 22005T   23092.30908823  .00000730  00000-0  63978-4 0  9995,2 51121  53.2173  63.2222 0001509 106.2503 253.8656 15.08839054 66989,6917.883,95.438,540.792,538.704,0.0
51121.0,STARLINK-3399,PAYLOAD,2023-04-02 15:22:01,15.08835317,0.0001555,53.2182,61.7335,108.8635,251.2526,9.8816e-05,1.285e-05,0.0,0 STARLINK-3399,1 51121U 22005T   23092.64029106  .00001285  00000-0  98816-4 0  9995,2 51121  53.2182  61.7335 0001555 108.8635 251.2526 15.08835317 67035,6917.895,95.438,540.835,538.684,0.0
51121.0,STARLINK-3399,PAYLOAD,2023-04-03 04:05:04,15.08867196,0.0001422,53.2181,59.3564,106.6559,253.4589,0.0006397,9.915e-05,0.0,0 STARLINK-3399,1 51121U 22005T   23093.17019587  .00009915  00000-0  63970-3 0  9996,2 51121  53.2181  59.3564 0001422 106.6559 253.4589 15.08867196 68220,6917.797,95.436,540.646,538.679,0.0
51121.0,STARLINK-3399,PAYLOAD,2023-04-03 21:34:20,15.08842373,0.0001576,53.2188,56.0875,88.8861,271.2312,0.00018462,2.652e-05,0.0,0 STARLINK-3399,1 51121U 22005T   23093.89884590  .00002652  00000-0  18462-3 0  9996,2 51121  53.2188  56.0875 0001576  88.8861 271.2312 15.08842373 67224,6917.873,95.437,540.828,538.648,0.0
51121.0,STARLINK-3399,PAYLOAD,2023-04-04 03:55:52,15.088379,0.0001158,53.2179,54.8986,83.7047,276.4077,-4.9711e-05,-1.079e-05,0.0,0 STARLINK-3399,1 51121U 22005T   23094.16380697 -.00001079  00000-0 -49711-4 0  9992,2 51121  53.2179  54.8986 0001158  83.7047 276.4077 15.08837900 68371,6917.887,95.438,540.553,538.951,0.0
51121.0,STARLINK-3399,PAYLOAD,2023-04-04 07:06:39,15.08838728,0.0001174,53.2177,54.3036,83.2751,276.8375,-3.514e-05,-8.47e-06,0.0,0 STARLINK-3399,1 51121U 22005T   23094.29628651 -.00000847  00000-0 -35140-4 0  9994,2 51121  53.2177  54.3036 0001174  83.2751 276.8375 15.08838728 67288,6917.884,95.438,540.561,538.937,0.0
51121.0,STARLINK-3399,PAYLOAD,2023-04-04 21:25:07,15.08836965,8.95e-05,53.2183,51.629,71.5049,288.604,-0.00012619,-2.295e-05,0.0,0 STARLINK-3399,1 51121U 22005T   23094.89245361 -.00002295  00000-0 -12619-3 0  9997,2 51121  53.2183  51.6290 0000895  71.5049 288.6040 15.08836965 67377,6917.89,95.438,540.374,539.136,0.0
51121.0,STARLINK-3399,PAYLOAD,2023-04-05 06:57:26,15.08848268,0.0001291,53.2182,49.8424,85.6524,274.4615,-0.00014848,-2.651e-05,0.0,0 STARLINK-3399,1 51121U 22005T   23095.28988555 -.00002651  00000-0 -14848-3 0  9992,2 51121  53.2182  49.8424 0001291  85.6524 274.4615 15.08848268 68549,6917.855,95.437,540.613,538.827,0.0
51121.0,STARLINK-3399,PAYLOAD,2023-04-06 03:37:27,15.08843886,0.0001074,53.2173,45.9788,76.3919,283.7193,0.000317,4.761e-05,0.0,0 STARLINK-3399,1 51121U 22005T   23096.15100799  .00004761  00000-0  31700-3 0  9993,2 51121  53.2173  45.9788 0001074  76.3919 283.7193 15.08843886 67569,6917.869,95.437,540.476,538.991,0.0
51121.0,STARLINK-3399,PAYLOAD,2023-04-06 21:06:42,15.08834949,0.0001216,53.2176,42.7066,89.7772,270.336,4.7696e-05,4.71e-06,0.0,0 STARLINK-3399,1 51121U 22005T   23096.87965463  .00000471  00000-0  47696-4 0  9995,2 51121  53.2176  42.7066 0001216  89.7772 270.3360 15.08834949 68782,6917.896,95.438,540.602,538.92,0.0
51121.0,STARLINK-3399,PAYLOAD,2023-04-07 06:39:01,15.08838137,0.0001218,53.2185,40.9231,91.8514,268.2618,0.00011637,1.565e-05,0.0,0 STARLINK-3399,1 51121U 22005T   23097.27709555  .00001565  00000-0  11637-3 0  9998,2 51121  53.2185  40.9231 0001218  91.8514 268.2618 15.08838137 67735,6917.886,95.438,540.594,538.908,0.0
51121.0,STARLINK-3399,PAYLOAD,2023-04-08 04:54:24,15.08850959,0.0001404,53.2184,36.7612,94.9605,265.1547,0.00013743,1.901e-05,0.0,0 STARLINK-3399,1 51121U 22005T   23098.20444802  .00001901  00000-0  13743-3 0  9997,2 51121  53.2184  36.7612 0001404  94.9605 265.1547 15.08850959 68983,6917.847,95.437,540.683,538.741,0.0
51121.0,STARLINK-3399,PAYLOAD,2023-04-08 19:12:53,15.08836613,0.0001709,53.2192,34.0854,75.7391,284.3791,6.0384e-05,6.73e-06,0.0,0 STARLINK-3399,1 51121U 22005T   23098.80061836  .00000673  00000-0  60384-4 0  9994,2 51121  53.2192  34.0854 0001709  75.7391 284.3791 15.08836613 69074,6917.891,95.438,540.938,538.573,0.0
51121.0,STARLINK-3399,PAYLOAD,2023-04-09 03:09:48,15.08839552,0.0001401,53.2189,32.5983,83.5123,276.6029,9.7583e-05,1.265e-05,0.0,0 STARLINK-3399,1 51121U 22005T   23099.13181709  .00001265  00000-0  97583-4 0  9992,2 51121  53.2189  32.5983 0001401  83.5123 276.6029 15.08839552 68011,6917.882,95.438,540.716,538.778,0.0
51121.0,STARLINK-3399,PAYLOAD,2023-04-09 19:03:40,15.08840715,0.0001382,53.219,29.625,84.6696,275.4454,0.00010743,1.422e-05,0.0,0 STARLINK-3399,1 51121U 22005T   23099.79421790  .00001422  00000-0  10743-3 0  9998,2 51121  53.2190  29.6250 0001382  84.6696 275.4454 15.08840715 68115,6917.878,95.438,540.699,538.787,0.0
51121.0,STARLINK-3399,PAYLOAD,2023-04-10 04:35:58,15.08854336,0.0001321,53.2178,27.8399,94.2707,265.8436,0.00020077,2.91e-05,0.0,0 STARLINK-3399,1 51121U 22005T   23100.19164967  .00002910  00000-0  20077-3 0  9999,2 51121  53.2178  27.8399 0001321  94.2707 265.8436 15.08854336 69284,6917.837,95.437,540.615,538.788,0.0
51121.0,STARLINK-3399,PAYLOAD,2023-04-10 18:54:27,15.08841971,0.0001486,53.2183,25.1646,83.1447,276.9714,0.00016756,2.38e-05,0.0,0 STARLINK-3399,1 51121U 22005T   23100.78781813  .00002380  00000-0  16756-3 0  9999,2 51121  53.2183  25.1646 0001486  83.1447 276.9714 15.08841971 68266,6917.874,95.437,540.767,538.711,0.0
51121.0,STARLINK-3399,PAYLOAD,2023-04-11 04:26:45,15.08853743,0.0001426,53.2178,23.3794,86.9175,273.198,0.0003503,5.294e-05,0.0,0 STARLINK-3399,1 51121U 22005T   23101.18525242  .00005294  00000-0  35030-3 0  9999,2 51121  53.2178  23.3794 0001426  86.9175 273.1980 15.08853743 69431,6917.838,95.437,540.69,538.717,0.0
51121.0,STARLINK-3399,PAYLOAD,2023-04-12 04:17:41,15.08645693,0.0001213,53.2177,18.9194,79.5002,280.6126,-0.0033887,-0.00053533,0.0,0 STARLINK-3399,1 51121U 22005T   23102.17894890 -.00053533  00000-0 -33887-2 0  9995,2 51121  53.2177  18.9194 0001213  79.5002 280.6126 15.08645693 69589,6918.474,95.45,541.179,539.5,0.0
51121.0,STARLINK-3399,PAYLOAD,2023-04-13 00:58:12,15.08230797,0.0001194,53.2177,15.0554,88.2095,271.9033,-0.0074178,-0.00114546,0.0,0 STARLINK-3399,1 51121U 22005T   23103.04042564 -.00114546  00000-0 -74178-2 0  9995,2 51121  53.2177  15.0554 0001194  88.2095 271.9033 15.08230797 68601,6919.743,95.476,542.434,540.782,0.0
51121.0,STARLINK-3399,PAYLOAD,2023-04-13 16:52:31,15.08196446,0.0001263,53.2178,12.0859,13.3727,346.7298,-0.0034345,-0.00053593,0.0,0 STARLINK-3399,1 51121U 22005T   23103.70314425 -.00053593  00000-0 -34345-2 0  9992,2 51121  53.2178  12.0859 0001263  13.3727 346.7298 15.08196446 69815,6919.848,95.478,542.587,540.839,0.0
51121.0,STARLINK-3399,PAYLOAD,2023-04-13 20:03:20,15.08276614,0.0001109,53.2183,11.4928,70.892,289.2192,-0.00021456,-3.647e-05,0.0,0 STARLINK-3399,1 51121U 22005T   23103.83565099 -.00003647  00000-0 -21456-3 0  9996,2 51121  53.2183  11.4928 0001109  70.8920 289.2192 15.08276614 69835,6919.603,95.473,542.235,540.701,0.0
51121.0,STARLINK-3399,PAYLOAD,2023-04-14 04:00:23,15.0839181,0.0002206,53.2186,10.0042,124.8906,235.2293,0.0029463,0.00046338,0.0,0 STARLINK-3399,1 51121U 22005T   23104.16693369  .00046338  00000-0  29463-2 0  9992,2 51121  53.2186  10.0042 0002206 124.8906 235.2293 15.08391810 69887,6919.251,95.466,542.642,539.589,0.0
51121.0,STARLINK-3399,PAYLOAD,2023-04-14 21:29:46,15.0861847,0.0001347,53.2171,6.7348,73.8838,286.2302,0.0067755,0.00108549,0.0,0 STARLINK-3399,1 51121U 22005T   23104.89567555  .00108549  00000-0  67755-2 0  9998,2 51121  53.2171   6.7348 0001347  73.8838 286.2302 15.08618470 69997,6918.558,95.452,541.355,539.491,0.0
